ONEWEB-0247             
1 48777U 21045L   23272.58712582  .00000199  00000+0  49457-3 0  9999
2 48777  87.8947  96.6375 0002298  78.6385 281.5003 13.15546572115164
ONEWEB-0245             
1 48778U 21045M   23272.58291988  .00000226  00000+0  56585-3 0  9993
2 48778  87.8935  96.6513 0001740  73.3707 286.7614 13.15550459115138
ONEWEB-0229             
1 48779U 21045N   23273.03289717  .00000160  00000+0  39118-3 0  9992
2 48779  87.8935  96.5510 0001928  84.9911 275.1440 13.15551811115220
ONEWEB-0228             
1 48780U 21045P   23272.59029843  .00000176  00000+0  43444-3 0  9990
2 48780  87.8933  96.6201 0001818  81.8648 278.2688 13.15546011115087
ONEWEB-0232             
1 48781U 21045Q   23273.04137309  .00000802  00000+0  20966-2 0  9998
2 48781  87.8886  96.6000 0001664  81.9395 278.1924 13.15547447115458
ONEWEB-0231             
1 48782U 21045R   23273.02021963 -.00000292  00000+0 -81026-3 0  9995
2 48782  87.8943  96.5591 0002014  83.2205 276.9155 13.15547386115164
ONEWEB-0234             
1 48783U 21045S   23273.04573600  .00025220  00000+0  66748-1 0  9996
2 48783  87.8937  96.5364 0001876  71.1904 288.9430 13.15575929115290
ONEWEB-0238             
1 48784U 21045T   23273.05720301  .00000085  00000+0  19079-3 0  9999
2 48784  87.8934  96.5443 0001545  81.2517 278.8788 13.15552178115195
